{
  "norad_id": 59391,
  "name": "STARLINK-31644",
  "history": [
    {
      "epoch": "2026-03-28T11:53:00.184992",
      "apogee_km": 475.99425638783123,
      "perigee_km": 474.5183096104047,
      "latitude_deg": -43.899630724936394,
      "longitude_deg": 166.63353888015263,
      "semi_major_axis_km": 6853.393282999118,
      "eccentricity": 0.00010768,
      "inclination_deg": 53.1606,
      "raan_deg": 170.9396,
      "arg_perigee_deg": 74.9289,
      "mean_anomaly_deg": 285.1831,
      "mean_motion_rev_day": 15.30186197
    }
  ]
}