{"fetched_at":"2026-03-29T02:12:04Z","count":15717,"tles":[{"name":"STARLINK-31644","line1":"1 59391U 24062T   26087.49514103  .00001203  00000+0  52750-4 0  9999","line2":"2 59391  53.1606 170.9396 0001076  74.9289 285.1831 15.30186197112517","category":"Starlink"}]}